NORAD_CAT_ID,OBJECT_NAME,OBJECT_TYPE,EPOCH,MEAN_MOTION,ECCENTRICITY,INCLINATION,RA_OF_ASC_NODE,ARG_OF_PERICENTER,MEAN_ANOMALY,BSTAR,MEAN_MOTION_DOT,MEAN_MOTION_DDOT,TLE_LINE0,TLE_LINE1,TLE_LINE2,SEMIMAJOR_AXIS,PERIOD,APOGEE,PERIGEE,DECAYED
49426.0,STARLINK-3114,PAYLOAD,2023-08-28 05:39:54,15.08840447,0.0001413,53.2178,59.1539,79.4744,280.6407,5.4667e-05,5.82e-06,0.0,0 STARLINK-3114,1 49426U 21104U   23240.23605003  .00000582  00000-0  54667-4 0  9990,2 49426  53.2178  59.1539 0001413  79.4744 280.6407 15.08840447100154,6917.879,95.438,540.722,538.767,0.0
49426.0,STARLINK-3114,PAYLOAD,2023-08-28 18:22:59,15.08846276,0.0001264,53.2182,56.7766,89.3283,270.7854,5.5872e-05,6.02e-06,0.0,0 STARLINK-3114,1 49426U 21104U   23240.76596575  .00000602  00000-0  55872-4 0  9993,2 49426  53.2182  56.7766 0001264  89.3283 270.7854 15.08846276 99144,6917.861,95.437,540.601,538.852,0.0
49426.0,STARLINK-3114,PAYLOAD,2023-08-28 23:09:08,15.08850525,0.0001339,53.2179,55.8832,86.2753,273.8392,8.7842e-05,1.111e-05,0.0,0 STARLINK-3114,1 49426U 21104U   23240.96468159  .00001111  00000-0  87842-4 0  9999,2 49426  53.2179  55.8832 0001339  86.2753 273.8392 15.08850525100264,6917.848,95.437,540.64,538.787,0.0
49426.0,STARLINK-3114,PAYLOAD,2023-08-29 16:38:25,15.0881865,0.0001346,53.2182,52.6113,92.0948,268.0199,-0.00012339,-2.25e-05,0.0,0 STARLINK-3114,1 49426U 21104U   23241.69335541 -.00002250  00000-0 -12339-3 0  9993,2 49426  53.2182  52.6113 0001346  92.0948 268.0199 15.08818650100370,6917.946,95.439,540.742,538.879,0.0
49426.0,STARLINK-3114,PAYLOAD,2023-08-29 22:59:57,15.08833486,0.0001271,53.2178,51.4219,93.2727,266.8411,2.1694e-05,5.7e-07,0.0,0 STARLINK-3114,1 49426U 21104U   23241.95830503  .00000057  00000-0  21694-4 0  9996,2 49426  53.2178  51.4219 0001271  93.2727 266.8411 15.08833486100416,6917.9,95.438,540.645,538.886,0.0
49426.0,STARLINK-3114,PAYLOAD,2023-08-30 16:29:11,15.08849629,0.0001338,53.2185,48.1518,88.4244,271.6901,0.00020283,2.942e-05,0.0,0 STARLINK-3114,1 49426U 21104U   23242.68693363  .00002942  00000-0  20283-3 0  9995,2 49426  53.2185  48.1518 0001338  88.4244 271.6901 15.08849629100529,6917.851,95.437,540.642,538.79,0.0
49426.0,STARLINK-3114,PAYLOAD,2023-08-30 18:04:34,15.08852768,0.0001312,53.2174,47.8554,83.8808,276.2333,0.00038402,5.831e-05,0.0,0 STARLINK-3114,1 49426U 21104U   23242.75317743  .00005831  00000-0  38402-3 0  9990,2 49426  53.2174  47.8554 0001312  83.8808 276.2333 15.08852768 99446,6917.841,95.437,540.614,538.799,0.0
49426.0,STARLINK-3114,PAYLOAD,2023-08-31 03:36:54,15.0884212,0.0002384,53.218,46.0676,89.7917,270.3348,0.00041505,6.324e-05,0.0,0 STARLINK-3114,1 49426U 21104U   23243.15062612  .00006324  00000-0  41505-3 0  9993,2 49426  53.2180  46.0676 0002384  89.7917 270.3348 15.08842120100596,6917.874,95.437,541.388,538.09,0.0
49426.0,STARLINK-3114,PAYLOAD,2023-08-31 11:33:49,15.08847854,0.0001159,53.2176,44.5838,80.342,279.7703,0.00023434,3.444e-05,0.0,0 STARLINK-3114,1 49426U 21104U   23243.48181922  .00003444  00000-0  23434-3 0  9996,2 49426  53.2176  44.5838 0001159  80.3420 279.7703 15.08847854 99559,6917.856,95.437,540.523,538.92,0.0
49426.0,STARLINK-3114,PAYLOAD,2023-09-01 11:24:35,15.08847096,0.0001487,53.2172,40.123,92.707,267.4092,-5.2369e-05,-1.122e-05,0.0,0 STARLINK-3114,1 49426U 21104U   23244.47541153 -.00001122  00000-0 -52369-4 0  9995,2 49426  53.2172  40.1230 0001487  92.7070 267.4092 15.08847096100797,6917.859,95.437,540.752,538.695,0.0
49426.0,STARLINK-3114,PAYLOAD,2023-09-01 19:21:31,15.0885038,0.0001529,53.2178,38.6363,93.3496,266.7671,-1.4047e-05,-5.12e-06,0.0,0 STARLINK-3114,1 49426U 21104U   23244.80660898 -.00000512  00000-0 -14047-4 0  9993,2 49426  53.2178  38.6363 0001529  93.3496 266.7671 15.08850380 99756,6917.849,95.437,540.771,538.656,0.0
49426.0,STARLINK-3114,PAYLOAD,2023-09-02 11:15:22,15.08843349,0.0001932,53.2185,35.6626,78.9528,281.1681,8.1096e-05,1.003e-05,0.0,0 STARLINK-3114,1 49426U 21104U   23245.46901490  .00001003  00000-0  81096-4 0  9994,2 49426  53.2185  35.6626 0001932  78.9528 281.1681 15.08843349100949,6917.87,95.437,541.072,538.399,0.0
49426.0,STARLINK-3114,PAYLOAD,2023-09-02 19:12:18,15.08848417,0.0001463,53.2186,34.1769,85.8973,274.2186,0.00014206,1.974e-05,0.0,0 STARLINK-3114,1 49426U 21104U   23245.80021100  .00001974  00000-0  14206-3 0  9998,2 49426  53.2186  34.1769 0001463  85.8973 274.2186 15.08848417 99909,6917.855,95.437,540.732,538.708,0.0
49426.0,STARLINK-3114,PAYLOAD,2023-09-03 11:06:09,15.08842422,0.0001375,53.2182,31.2025,88.4665,271.6485,0.00011059,1.473e-05,0.0,0 STARLINK-3114,1 49426U 21104U   23246.46261373  .00001473  00000-0  11059-3 0  9996,2 49426  53.2182  31.2025 0001375  88.4665 271.6485 15.08842422100004,6917.873,95.437,540.689,538.787,0.0
49426.0,STARLINK-3114,PAYLOAD,2023-09-03 15:52:18,15.08848648,0.0001373,53.2187,30.3111,86.8159,273.299,0.00019758,2.859e-05,0.0,0 STARLINK-3114,1 49426U 21104U   23246.66133031  .00002859  00000-0  19758-3 0  9990,2 49426  53.2187  30.3111 0001373  86.8159 273.2990 15.08848648101122,6917.854,95.437,540.669,538.769,0.0
49426.0,STARLINK-3114,PAYLOAD,2023-09-04 09:21:34,15.08836096,0.0001311,53.2173,27.0407,80.8913,279.2228,0.00016162,2.285e-05,0.0,0 STARLINK-3114,1 49426U 21104U   23247.38997688  .00002285  00000-0  16162-3 0  9995,2 49426  53.2173  27.0407 0001311  80.8913 279.2228 15.08836096101238,6917.892,95.438,540.664,538.85,0.0
49426.0,STARLINK-3114,PAYLOAD,2023-09-05 09:12:21,15.08837415,0.0001115,53.2193,22.5795,88.7491,271.3629,0.00010433,1.373e-05,0.0,0 STARLINK-3114,1 49426U 21104U   23248.38357726  .00001373  00000-0  10433-3 0  9991,2 49426  53.2193  22.5795 0001115  88.7491 271.3629 15.08837415100299,6917.888,95.438,540.525,538.982,0.0
49426.0,STARLINK-3114,PAYLOAD,2023-09-06 09:03:08,15.08831938,0.000133,53.2196,18.1189,94.4091,265.7053,0.00031208,4.681e-05,0.0,0 STARLINK-3114,1 49426U 21104U   23249.37717752  .00004681  00000-0  31208-3 0  9998,2 49426  53.2196  18.1189 0001330  94.4091 265.7053 15.08831938101539,6917.905,95.438,540.69,538.85,0.0
49426.0,STARLINK-3114,PAYLOAD,2023-09-07 08:53:55,15.08840819,0.0001288,53.2191,13.6582,100.4938,259.6199,5.9737e-05,6.63e-06,0.0,0 STARLINK-3114,1 49426U 21104U   23250.37077700  .00000663  00000-0  59737-4 0  9996,2 49426  53.2191  13.6582 0001288 100.4938 259.6199 15.08840819100597,6917.878,95.438,540.634,538.852,0.0
49426.0,STARLINK-3114,PAYLOAD,2023-09-07 18:26:13,15.08845254,0.0001285,53.2193,11.8743,100.7277,259.386,7.4176e-05,8.93e-06,0.0,0 STARLINK-3114,1 49426U 21104U   23250.76821294  .00000893  00000-0  74176-4 0  9993,2 49426  53.2193  11.8743 0001285 100.7277 259.3860 15.08845254101742,6917.864,95.437,540.618,538.84,0.0
49426.0,STARLINK-3114,PAYLOAD,2023-09-08 13:30:52,15.08834258,0.0001417,53.2194,8.3062,97.0577,263.0576,4.7833e-05,4.73e-06,0.0,0 STARLINK-3114,1 49426U 21104U   23251.56310217  .00000473  00000-0  47833-4 0  9994,2 49426  53.2194   8.3062 0001417  97.0577 263.0576 15.08834258100776,6917.898,95.438,540.743,538.783,0.0
49426.0,STARLINK-3114,PAYLOAD,2023-09-08 18:17:01,15.08837339,0.0001428,53.22,7.4144,93.9112,266.2043,7.2386e-05,8.64e-06,0.0,0 STARLINK-3114,1 49426U 21104U   23251.76182051  .00000864  00000-0  72386-4 0  9994,2 49426  53.2200   7.4144 0001428  93.9112 266.2043 15.08837339101898,6917.889,95.438,540.741,538.766,0.0
49426.0,STARLINK-3114,PAYLOAD,2023-09-09 13:21:39,15.08837088,0.0001157,53.2193,3.8459,88.9342,271.1782,0.00013667,1.888e-05,0.0,0 STARLINK-3114,1 49426U 21104U   23252.55670185  .00001888  00000-0  13667-3 0  9995,2 49426  53.2193   3.8459 0001157  88.9342 271.1782 15.08837088100925,6917.889,95.438,540.555,538.954,0.0
49426.0,STARLINK-3114,PAYLOAD,2023-09-10 00:29:20,15.08842561,0.0001054,53.2189,1.7633,106.5882,253.5226,0.00010233,1.341e-05,0.0,0 STARLINK-3114,1 49426U 21104U   23253.02037849  .00001341  00000-0  10233-3 0  9992,2 49426  53.2189   1.7633 0001054 106.5882 253.5226 15.08842561102081,6917.873,95.437,540.467,539.008,0.0
49426.0,STARLINK-3114,PAYLOAD,2023-09-10 13:12:25,15.08846495,0.0001447,53.219,359.3842,87.7077,272.408,0.00013764,1.904e-05,0.0,0 STARLINK-3114,1 49426U 21104U   23253.55029782  .00001904  00000-0  13764-3 0  9994,2 49426  53.2190 359.3842 0001447  87.7077 272.4080 15.08846495101075,6917.861,95.437,540.727,538.725,0.0
49426.0,STARLINK-3114,PAYLOAD,2023-09-11 06:41:40,15.08836788,0.0001525,53.2174,356.1162,71.2713,288.8444,0.00012746,1.741e-05,0.0,0 STARLINK-3114,1 49426U 21104U   23254.27894410  .00001741  00000-0  12746-3 0  9990,2 49426  53.2174 356.1162 0001525  71.2713 288.8444 15.08836788102271,6917.89,95.438,540.81,538.7,0.0
49426.0,STARLINK-3114,PAYLOAD,2023-09-11 13:03:13,15.08843593,0.0001395,53.2185,354.9241,87.5563,272.5589,8.1289e-05,1.006e-05,0.0,0 STARLINK-3114,1 49426U 21104U   23254.54390069  .00001006  00000-0  81289-4 0  9994,2 49426  53.2185 354.9241 0001395  87.5563 272.5589 15.08843593101221,6917.869,95.437,540.699,538.769,0.0
49426.0,STARLINK-3114,PAYLOAD,2023-09-12 12:53:59,15.08848806,0.0001448,53.218,350.4661,81.7726,278.3431,0.00012371,1.682e-05,0.0,0 STARLINK-3114,1 49426U 21104U   23255.53749881  .00001682  00000-0  12371-3 0  9999,2 49426  53.2180 350.4661 0001448  81.7726 278.3431 15.08848806101377,6917.853,95.437,540.72,538.717,0.0
49426.0,STARLINK-3114,PAYLOAD,2023-09-13 12:44:46,15.08856196,0.0001543,53.2185,346.0053,84.7849,275.3319,0.00024383,3.596e-05,0.0,0 STARLINK-3114,1 49426U 21104U   23256.53109225  .00003596  00000-0  24383-3 0  9994,2 49426  53.2185 346.0053 0001543  84.7849 275.3319 15.08856196101523,6917.831,95.437,540.763,538.628,0.0
49426.0,STARLINK-3114,PAYLOAD,2023-09-14 09:24:49,15.08816445,0.0001464,53.2184,342.1407,100.246,259.8698,-0.0003073,-5.172e-05,0.0,0 STARLINK-3114,1 49426U 21104U   23257.39223440 -.00005172  00000-0 -30730-3 0  9992,2 49426  53.2184 342.1407 0001464 100.2460 259.8698 15.08816445102742,6917.952,95.439,540.83,538.805,0.0
